     2.10           G: GLONASS NAV DATA                     RINEX VERSION / TYPE
teqc  2015Jun23                         20220630 01:25:42UTCPGM / RUN BY / DATE
Linux 2.4.21-27.ELsmp|Opteron|gcc -static|Linux x86_64|=+   COMMENT
  2022     6    19   -0.000000000000D+00                    CORR TO SYSTEM TIME
                                                            END OF HEADER
15 22  6 20 13 45  0.0 9.524542838335D-05-9.094947017729D-13 4.860000000000D+04
    2.708041992188D+03-1.730145454407D+00 0.000000000000D+00 0.000000000000D+00
    1.349459570312D+04 2.381114959717D+00 9.313225746155D-10 0.000000000000D+00
   -2.145468994141D+04 1.277270317078D+00 1.862645149231D-09 0.000000000000D+00
13 22  6 20 13 45  0.0-2.379063516855D-05-0.000000000000D+00 4.860000000000D+04
   -1.739236523438D+04 8.544073104858D-01 9.313225746155D-10 0.000000000000D+00
    1.626241894531D+04-9.275512695312D-01 0.000000000000D+00-2.000000000000D+00
    9.142632812500D+03 3.270817756653D+00-9.313225746155D-10 0.000000000000D+00
14 22  6 20 13 45  0.0 2.516712993383D-05-0.000000000000D+00 4.860000000000D+04
   -1.019091455078D+04-6.794805526733D-01 9.313225746155D-10 0.000000000000D+00
    2.136450781250D+04 1.120939254761D+00 9.313225746155D-10-7.000000000000D+00
   -9.518701660156D+03 3.236137390137D+00 0.000000000000D+00 0.000000000000D+00
17 22  6 20 13 45  0.0 5.365731194615D-04 2.728484105319D-12 4.860000000000D+04
    2.137155761719D+03-5.473871231079D-01 0.000000000000D+00 0.000000000000D+00
    2.143010693359D+04-1.798315048218D+00 1.862645149231D-09 4.000000000000D+00
   -1.363787158203D+04-2.914935112000D+00 9.313225746155D-10 0.000000000000D+00
24 22  6 20 13 45  0.0 9.962078183889D-05 1.818989403546D-12 4.860000000000D+04
   -8.348485351562D+03-1.132678985596D+00-0.000000000000D+00 0.000000000000D+00
    7.853140136719D+03-2.909831047058D+00-0.000000000000D+00 2.000000000000D+00
   -2.277789794922D+04-5.891656875610D-01 1.862645149231D-09 0.000000000000D+00
 3 22  6 20 13 45  0.0 5.878135561943D-05 9.094947017729D-13 4.890000000000D+04
   -3.362766113281D+03-3.114903450012D+00 1.862645149231D-09 0.000000000000D+00
    1.056465478516D+04-3.873643875122D-01 9.313225746155D-10 5.000000000000D+00
    2.301733056641D+04-2.827138900757D-01-1.862645149231D-09 0.000000000000D+00
19 22  6 20 13 45  0.0-1.934031024575D-04-9.094947017729D-13 4.977000000000D+04
    1.315922607422D+04 9.710893630981D-01 1.862645149231D-09 0.000000000000D+00
    1.397985644531D+04 2.097408294678D+00 1.862645149231D-09 3.000000000000D+00
    1.678437109375D+04-2.507345199585D+00-0.000000000000D+00 0.000000000000D+00
18 22  6 20 14 15  0.0 1.209136098623D-04 9.094947017729D-13 5.040000000000D+04
    1.091891894531D+04-4.597473144531D-02 1.862645149231D-09 0.000000000000D+00
    2.276754687500D+04-5.722522735596D-01 1.862645149231D-09-3.000000000000D+00
   -3.794938964844D+03-3.554482460022D+00 9.313225746155D-10 0.000000000000D+00
15 22  6 20 14 15  0.0 9.524449706078D-05-9.094947017729D-13 5.040000000000D+04
    9.737646484375D+01-1.162289619446D+00 0.000000000000D+00 0.000000000000D+00
    1.769290185547D+04 2.235131263733D+00 9.313225746155D-10 0.000000000000D+00
   -1.835441406250D+04 2.145022392273D+00 1.862645149231D-09 0.000000000000D+00
13 22  6 20 14 15  0.0-2.379156649113D-05-0.000000000000D+00 5.040000000000D+04
   -1.562433105469D+04 1.066379547119D+00 9.313225746155D-10 0.000000000000D+00
    1.389664160156D+04-1.697112083435D+00-0.000000000000D+00-2.000000000000D+00
    1.460038818359D+04 2.753938674927D+00-1.862645149231D-09 0.000000000000D+00
14 22  6 20 14 15  0.0 2.516712993383D-05 0.000000000000D+00 5.040000000000D+04
   -1.087806103516D+04-1.085500717163D-01 9.313225746155D-10 0.000000000000D+00
    2.283063183594D+04 4.748716354370D-01 0.000000000000D+00-7.000000000000D+00
   -3.401096191406D+03 3.517070770264D+00-0.000000000000D+00 0.000000000000D+00
17 22  6 20 14 15  0.0 5.365787073970D-04 2.728484105319D-12 5.040000000000D+04
    6.342143554688D+02-1.133556365967D+00 0.000000000000D+00 0.000000000000D+00
    1.775179785156D+04-2.242164611816D+00 9.313225746155D-10 4.000000000000D+00
   -1.828865332031D+04-2.219052314758D+00 1.862645149231D-09 0.000000000000D+00
19 22  6 20 14 15  0.0-1.934086903930D-04-9.094947017729D-13 5.040000000000D+04
    1.492607275391D+04 9.477033615112D-01 1.862645149231D-09 0.000000000000D+00
    1.706380859375D+04 1.312885284424D+00 1.862645149231D-09 3.000000000000D+00
    1.168014746094D+04-3.127154350281D+00-0.000000000000D+00 0.000000000000D+00
 3 22  6 20 14 15  0.0 5.878321826458D-05 9.094947017729D-13 5.043000000000D+04
   -8.867352050781D+03-2.950452804565D+00 1.862645149231D-09 0.000000000000D+00
    1.028319628906D+04 6.889438629150D-02 0.000000000000D+00 5.000000000000D+00
    2.162919238281D+04-1.249890327454D+00-1.862645149231D-09 0.000000000000D+00
18 22  6 20 14 45  0.0 1.209164038301D-04 9.094947017729D-13 5.220000000000D+04
    1.031927783203D+04-6.455707550049D-01 9.313225746155D-10 0.000000000000D+00
    2.111897070312D+04-1.224009513855D+00 1.862645149231D-09-3.000000000000D+00
   -9.964255371094D+03-3.255902290344D+00 9.313225746155D-10 0.000000000000D+00
15 22  6 20 14 45  0.0 9.524356573820D-05-0.000000000000D+00 5.220000000000D+04
   -1.479623046875D+03-5.999565124512D-01 9.313225746155D-10 0.000000000000D+00
    2.136934082031D+04 1.804482460022D+00 9.313225746155D-10 0.000000000000D+00
   -1.383272802734D+04 2.846350669861D+00 9.313225746155D-10 0.000000000000D+00
 3 22  6 20 14 45  0.0 5.878508090973D-05 9.094947017729D-13 5.220000000000D+04
   -1.381092236328D+04-2.498348236084D+00 9.313225746155D-10 0.000000000000D+00
    1.076065136719D+04 4.389762878418D-01-0.000000000000D+00 5.000000000000D+00
    1.857486621094D+04-2.122060775757D+00-2.793967723846D-09 0.000000000000D+00
13 22  6 20 14 45  0.0-2.379249781370D-05-0.000000000000D+00 5.220000000000D+04
   -1.370855761719D+04 1.021265983582D+00 9.313225746155D-10 0.000000000000D+00
    1.020148681641D+04-2.385861396790D+00-0.000000000000D+00-2.000000000000D+00
    1.892856982422D+04 2.023882865906D+00-2.793967723846D-09 0.000000000000D+00
14 22  6 20 14 45  0.0 2.516712993383D-05 0.000000000000D+00 5.220000000000D+04
   -1.069319824219D+04 2.777347564697D-01 9.313225746155D-10 0.000000000000D+00
    2.298068652344D+04-3.258666992188D-01 0.000000000000D+00-7.000000000000D+00
    2.979275390625D+03 3.526247978210D+00-9.313225746155D-10 0.000000000000D+00
17 22  6 20 14 45  0.0 5.365842953324D-04 2.728484105319D-12 5.220000000000D+04
   -1.949584960938D+03-1.729424476624D+00-0.000000000000D+00 0.000000000000D+00
    1.353488525391D+04-2.393326759338D+00 0.000000000000D+00 4.000000000000D+00
   -2.152339257812D+04-1.351835250854D+00 1.862645149231D-09 0.000000000000D+00
19 22  6 20 14 45  0.0-1.934114843607D-04-9.094947017729D-13 5.220000000000D+04
    1.640824462891D+04 6.547355651855D-01 1.862645149231D-09 0.000000000000D+00
    1.868349804688D+04 4.905328750610D-01 1.862645149231D-09 3.000000000000D+00
    5.672191894531D+03-3.504967689514D+00 0.000000000000D+00 0.000000000000D+00
18 22  6 20 15 15  0.0 1.209191977978D-04 9.094947017729D-13 5.400000000000D+04
    8.533880371094D+03-1.346079826355D+00 9.313225746155D-10 0.000000000000D+00
    1.850905957031D+04-1.630596160889D+00 9.313225746155D-10-3.000000000000D+00
   -1.536499511719D+04-2.705987930298D+00 9.313225746155D-10 0.000000000000D+00
15 22  6 20 15 15  0.0 9.524263441563D-05-0.000000000000D+00 5.400000000000D+04
   -2.128578613281D+03-1.470336914062D-01 9.313225746155D-10 0.000000000000D+00
    2.404237597656D+04 1.130727767944D+00 0.000000000000D+00 0.000000000000D+00
   -8.240274902344D+03 3.327056884766D+00 0.000000000000D+00 0.000000000000D+00
 3 22  6 20 15 15  0.0 5.878973752260D-05 0.000000000000D+00 5.400000000000D+04
   -1.772486474609D+04-1.819820404053D+00 0.000000000000D+00 0.000000000000D+00
    1.175693261719D+04 6.324892044067D-01-9.313225746155D-10 5.000000000000D+00
    1.408747753906D+04-2.831797599792D+00-1.862645149231D-09 0.000000000000D+00
14 22  6 20 15 15  0.0 2.516712993383D-05 0.000000000000D+00 5.400000000000D+04
   -1.002017041016D+04 4.288930892944D-01 9.313225746155D-10 0.000000000000D+00
    2.162680175781D+04-1.177428245544D+00-0.000000000000D+00-7.000000000000D+00
    9.129637207031D+03 3.263197898865D+00-1.862645149231D-09 0.000000000000D+00
17 22  6 20 15 15  0.0 5.365908145905D-04 2.728484105319D-12 5.400000000000D+04
   -5.529543457031D+03-2.222126960754D+00-0.000000000000D+00 0.000000000000D+00
    9.310357421875D+03-2.255150794983D+00 0.000000000000D+00 4.000000000000D+00
   -2.309271582031D+04-3.806447982788D-01 1.862645149231D-09 0.000000000000D+00
19 22  6 20 15 15  0.0-1.934142783284D-04-9.094947017729D-13 5.400000000000D+04
    1.713454199219D+04 1.156282424927D-01 1.862645149231D-09 0.000000000000D+00
    1.887820507812D+04-2.515945434570D-01 9.313225746155D-10 3.000000000000D+00
   -7.745937500000D+02-3.611588478088D+00 0.000000000000D+00 0.000000000000D+00
 4 22  6 20 15 15  0.0 1.473864540458D-04 1.818989403546D-12 5.550000000000D+04
   -1.100502441406D+03-3.007645606995D+00 1.862645149231D-09 0.000000000000D+00
    1.134525683594D+04 8.353910446167D-01 0.000000000000D+00 6.000000000000D+00
    2.284971093750D+04-5.610561370850D-01-1.862645149231D-09 0.000000000000D+00
18 22  6 20 15 45  0.0 1.209219917655D-04 9.094947017729D-13 5.580000000000D+04
    5.479931152344D+03-2.035586357117D+00 0.000000000000D+00 0.000000000000D+00
    1.541874902344D+04-1.755568504333D+00 9.313225746155D-10-3.000000000000D+00
   -1.957993994141D+04-1.946832656860D+00 1.862645149231D-09 0.000000000000D+00
15 22  6 20 15 45  0.0 9.524263441563D-05-0.000000000000D+00 5.580000000000D+04
   -2.123969726562D+03 1.154174804688D-01 9.313225746155D-10 0.000000000000D+00
    2.534197314453D+04 2.945566177368D-01 0.000000000000D+00 0.000000000000D+00
   -2.010287109375D+03 3.550167083740D+00-0.000000000000D+00 0.000000000000D+00
